NORAD_CAT_ID,OBJECT_NAME,OBJECT_TYPE,EPOCH,MEAN_MOTION,ECCENTRICITY,INCLINATION,RA_OF_ASC_NODE,ARG_OF_PERICENTER,MEAN_ANOMALY,BSTAR,MEAN_MOTION_DOT,MEAN_MOTION_DDOT,TLE_LINE0,TLE_LINE1,TLE_LINE2,SEMIMAJOR_AXIS,PERIOD,APOGEE,PERIGEE,DECAYED
52851.0,STARLINK-3809,PAYLOAD,2024-05-07 11:49:15,15.08856343,0.0001454,53.2146,157.2408,79.1047,281.0108,0.00026554,3.942e-05,0.0,0 STARLINK-3809,1 52851U 22062X   24128.49254013  .00003942  00000-0  26554-3 0  9991,2 52851  53.2146 157.2408 0001454  79.1047 281.0108 15.08856343104595,6917.83,95.437,540.701,538.69,0.0
52851.0,STARLINK-3809,PAYLOAD,2024-05-08 05:18:30,15.08842532,0.0001498,53.2148,153.969,82.6229,277.4934,-5.3011e-05,-1.132e-05,0.0,0 STARLINK-3809,1 52851U 22062X   24129.22118276 -.00001132  00000-0 -53011-4 0  9993,2 52851  53.2148 153.9690 0001498  82.6229 277.4934 15.08842532105190,6917.873,95.437,540.774,538.701,0.0
52851.0,STARLINK-3809,PAYLOAD,2024-05-08 11:40:02,15.08842579,0.0001426,53.2156,152.7798,81.4427,278.6726,-3.945e-05,-9.16e-06,0.0,0 STARLINK-3809,1 52851U 22062X   24129.48614491 -.00000916  00000-0 -39450-4 0  9991,2 52851  53.2156 152.7798 0001426  81.4427 278.6726 15.08842579104746,6917.873,95.437,540.724,538.751,0.0
52851.0,STARLINK-3809,PAYLOAD,2024-05-08 18:01:35,15.08846136,0.0001392,53.2156,151.5902,79.668,280.4469,-2.3758e-05,-6.66e-06,0.0,0 STARLINK-3809,1 52851U 22062X   24129.75110100 -.00000666  00000-0 -23758-4 0  9995,2 52851  53.2156 151.5902 0001392  79.6680 280.4469 15.08846136104784,6917.862,95.437,540.69,538.764,0.0
52851.0,STARLINK-3809,PAYLOAD,2024-05-09 08:20:03,15.08846012,0.0001305,53.2154,148.9149,82.0074,278.1066,3.9499e-05,3.41e-06,0.0,0 STARLINK-3809,1 52851U 22062X   24130.34725784  .00000341  00000-0  39499-4 0  9999,2 52851  53.2154 148.9149 0001305  82.0074 278.1066 15.08846012105369,6917.862,95.437,540.63,538.824,0.0
52851.0,STARLINK-3809,PAYLOAD,2024-05-09 17:52:21,15.08845434,0.0001281,53.2151,147.1309,80.662,279.4516,2.2225e-05,6.6e-07,0.0,0 STARLINK-3809,1 52851U 22062X   24130.74469890  .00000066  00000-0  22225-4 0  9999,2 52851  53.2151 147.1309 0001281  80.6620 279.4516 15.08845434104932,6917.864,95.437,540.615,538.843,0.0
52851.0,STARLINK-3809,PAYLOAD,2024-05-10 11:21:36,15.08840525,0.0001341,53.2154,143.8603,85.2328,274.8817,0.00012975,1.778e-05,0.0,0 STARLINK-3809,1 52851U 22062X   24131.47334169  .00001778  00000-0  12975-3 0  9991,2 52851  53.2154 143.8603 0001341  85.2328 274.8817 15.08840525105534,6917.879,95.438,540.671,538.816,0.0
52851.0,STARLINK-3809,PAYLOAD,2024-05-10 17:43:09,15.08837488,0.0001317,53.215,142.6711,87.1977,272.9166,6.5009e-05,7.47e-06,0.0,0 STARLINK-3809,1 52851U 22062X   24131.73830567  .00000747  00000-0  65009-4 0  9995,2 52851  53.2150 142.6711 0001317  87.1977 272.9166 15.08837488105081,6917.888,95.438,540.664,538.842,0.0
52851.0,STARLINK-3809,PAYLOAD,2024-05-11 08:01:36,15.08861973,0.0001538,53.2156,139.9949,89.9666,270.1503,0.00027204,4.047e-05,0.0,0 STARLINK-3809,1 52851U 22062X   24132.33445399  .00004047  00000-0  27204-3 0  9998,2 52851  53.2156 139.9949 0001538  89.9666 270.1503 15.08861973105664,6917.813,95.436,540.742,538.614,0.0
52851.0,STARLINK-3809,PAYLOAD,2024-05-11 17:33:55,15.08853159,0.000166,53.215,138.2105,74.4457,285.6718,0.00034354,5.186e-05,0.0,0 STARLINK-3809,1 52851U 22062X   24132.73189703  .00005186  00000-0  34354-3 0  9995,2 52851  53.2150 138.2105 0001660  74.4457 285.6718 15.08853159105720,6917.84,95.437,540.854,538.557,0.0
52851.0,STARLINK-3809,PAYLOAD,2024-05-12 06:17:01,15.08831563,0.0001462,53.2142,135.832,80.3467,279.769,-5.6423e-05,-1.186e-05,0.0,0 STARLINK-3809,1 52851U 22062X   24133.26182571 -.00001186  00000-0 -56423-4 0  9990,2 52851  53.2142 135.8320 0001462  80.3467 279.7690 15.08831563105807,6917.906,95.438,540.783,538.76,0.0
52851.0,STARLINK-3809,PAYLOAD,2024-05-12 09:27:48,15.08834288,0.000154,53.2145,135.2374,79.8748,280.2417,1.254e-05,-8.8e-07,0.0,0 STARLINK-3809,1 52851U 22062X   24133.39430564 -.00000088  00000-0  12540-4 0  9993,2 52851  53.2145 135.2374 0001540  79.8748 280.2417 15.08834288105334,6917.898,95.438,540.828,538.697,0.0
52851.0,STARLINK-3809,PAYLOAD,2024-05-12 17:24:43,15.0883319,0.0001549,53.2149,133.7499,78.5407,281.5759,2.3233e-05,8.2e-07,0.0,0 STARLINK-3809,1 52851U 22062X   24133.72550774  .00000082  00000-0  23233-4 0  9990,2 52851  53.2149 133.7499 0001549  78.5407 281.5759 15.08833190105385,6917.901,95.438,540.838,538.695,0.0
52851.0,STARLINK-3809,PAYLOAD,2024-05-13 06:07:49,15.08834296,0.0001585,53.2144,131.3705,77.7761,282.3408,0.00031251,4.688e-05,0.0,0 STARLINK-3809,1 52851U 22062X   24134.25543091  .00004688  00000-0  31251-3 0  9997,2 52851  53.2144 131.3705 0001585  77.7761 282.3408 15.08834296105465,6917.898,95.438,540.859,538.666,0.0
52851.0,STARLINK-3809,PAYLOAD,2024-05-13 17:15:31,15.08839427,0.0001623,53.2145,129.2888,76.5328,283.5844,0.00042583,6.495e-05,0.0,0 STARLINK-3809,1 52851U 22062X   24134.71911172  .00006495  00000-0  42583-3 0  9995,2 52851  53.2145 129.2888 0001623  76.5328 283.5844 15.08839427106024,6917.882,95.438,540.87,538.624,0.0
52851.0,STARLINK-3809,PAYLOAD,2024-05-14 09:09:22,15.08852615,0.0001654,53.2146,126.3146,78.0454,282.0723,0.00052166,8.027e-05,0.0,0 STARLINK-3809,1 52851U 22062X   24135.38150746  .00008027  00000-0  52166-3 0  9992,2 52851  53.2146 126.3146 0001654  78.0454 282.0723 15.08852615105631,6917.842,95.437,540.851,538.563,0.0
52851.0,STARLINK-3809,PAYLOAD,2024-05-15 05:49:21,15.08848191,0.0001578,53.2148,122.4485,81.7878,278.3293,-0.00023996,-4.106e-05,0.0,0 STARLINK-3809,1 52851U 22062X   24136.24261264 -.00004106  00000-0 -23996-3 0  9991,2 52851  53.2148 122.4485 0001578  81.7878 278.3293 15.08848191106255,6917.855,95.437,540.812,538.629,0.0
52851.0,STARLINK-3809,PAYLOAD,2024-05-15 09:00:07,15.08850905,0.0001581,53.2148,121.8536,81.7014,278.4158,-0.00010696,-1.99e-05,0.0,0 STARLINK-3809,1 52851U 22062X   24136.37509175 -.00001990  00000-0 -10696-3 0  9992,2 52851  53.2148 121.8536 0001581  81.7014 278.4158 15.08850905105785,6917.847,95.437,540.806,538.618,0.0
52851.0,STARLINK-3809,PAYLOAD,2024-05-16 05:40:09,15.0883817,0.0001613,53.2151,117.9869,85.1653,274.9524,-7.9484e-05,-1.553e-05,0.0,0 STARLINK-3809,1 52851U 22062X   24137.23622182 -.00001553  00000-0 -79484-4 0  9998,2 52851  53.2151 117.9869 0001613  85.1653 274.9524 15.08838170106405,6917.886,95.438,540.867,538.635,0.0
52851.0,STARLINK-3809,PAYLOAD,2024-05-16 15:12:28,15.0884068,0.0001639,53.2153,116.2029,86.1975,273.9205,-1.7588e-05,-5.68e-06,0.0,0 STARLINK-3809,1 52851U 22062X   24137.63366141 -.00000568  00000-0 -17588-4 0  9994,2 52851  53.2153 116.2029 0001639  86.1975 273.9205 15.08840680105978,6917.878,95.438,540.877,538.609,0.0
52851.0,STARLINK-3809,PAYLOAD,2024-05-16 23:09:24,15.08834499,0.000157,53.2151,114.7158,86.5913,273.5259,0.00027132,4.032e-05,0.0,0 STARLINK-3809,1 52851U 22062X   24137.96486592  .00004032  00000-0  27132-3 0  9996,2 52851  53.2151 114.7158 0001570  86.5913 273.5259 15.08834499106025,6917.897,95.438,540.848,538.676,0.0
52851.0,STARLINK-3809,PAYLOAD,2024-05-17 05:30:56,15.08845323,0.0001541,53.2156,113.5292,93.2435,266.8733,0.00043179,6.592e-05,0.0,0 STARLINK-3809,1 52851U 22062X   24138.22982307  .00006592  00000-0  43179-3 0  9993,2 52851  53.2156 113.5292 0001541  93.2435 266.8733 15.08845323106062,6917.864,95.437,540.795,538.663,0.0
52851.0,STARLINK-3809,PAYLOAD,2024-05-17 15:03:15,15.08840321,0.0001508,53.2152,111.7424,80.9442,279.1721,0.00029201,4.362e-05,0.0,0 STARLINK-3809,1 52851U 22062X   24138.62726594  .00004362  00000-0  29201-3 0  9994,2 52851  53.2152 111.7424 0001508  80.9442 279.1721 15.08840321106617,6917.879,95.438,540.788,538.701,0.0
52851.0,STARLINK-3809,PAYLOAD,2024-05-18 05:21:44,15.08834023,0.0001643,53.2152,109.0708,97.8041,262.3137,3.5653e-05,2.79e-06,0.0,0 STARLINK-3809,1 52851U 22062X   24139.22343202  .00000279  00000-0  35653-4 0  9994,2 52851  53.2152 109.0708 0001643  97.8041 262.3137 15.08834023106701,6917.899,95.438,540.9,538.627,0.0
52851.0,STARLINK-3809,PAYLOAD,2024-05-18 06:57:07,15.08838901,0.0001548,53.2155,108.7723,93.5805,266.5364,0.00030303,4.538e-05,0.0,0 STARLINK-3809,1 52851U 22062X   24139.28967156  .00004538  00000-0  30303-3 0  9998,2 52851  53.2155 108.7723 0001548  93.5805 266.5364 15.08838901106226,6917.884,95.438,540.82,538.678,0.0
52851.0,STARLINK-3809,PAYLOAD,2024-05-18 14:54:03,15.0883744,0.0001499,53.2152,107.2848,86.2751,273.8413,0.00062677,9.7e-05,0.0,0 STARLINK-3809,1 52851U 22062X   24139.62087460  .00009700  00000-0  62677-3 0  9992,2 52851  53.2152 107.2848 0001499  86.2751 273.8413 15.08837440106277,6917.888,95.438,540.79,538.716,0.0
52851.0,STARLINK-3809,PAYLOAD,2024-05-19 06:47:54,15.08843783,0.0001503,53.2146,104.3104,82.4085,277.7077,0.00044932,6.871e-05,0.0,0 STARLINK-3809,1 52851U 22062X   24140.28327412  .00006871  00000-0  44932-3 0  9990,2 52851  53.2146 104.3104 0001503  82.4085 277.7077 15.08843783106374,6917.869,95.437,540.774,538.694,0.0
52851.0,STARLINK-3809,PAYLOAD,2024-05-19 21:06:23,15.08839151,0.0001273,53.2136,101.631,97.0438,263.0699,0.00020312,2.946e-05,0.0,0 STARLINK-3809,1 52851U 22062X   24140.87943564  .00002946  00000-0  20312-3 0  9992,2 52851  53.2136 101.6310 0001273  97.0438 263.0699 15.08839151106956,6917.883,95.438,540.629,538.867,0.0
52851.0,STARLINK-3809,PAYLOAD,2024-05-20 05:03:18,15.08842198,0.0001406,53.2148,100.147,84.9256,275.1896,0.00026659,3.958e-05,0.0,0 STARLINK-3809,1 52851U 22062X   24141.21063609  .00003958  00000-0  26659-3 0  9998,2 52851  53.2148 100.1470 0001406  84.9256 275.1896 15.08842198106511,6917.874,95.437,540.711,538.766,0.0
52851.0,STARLINK-3809,PAYLOAD,2024-05-20 20:57:10,15.0883275,0.0001344,53.2161,97.1712,99.0976,261.0168,0.00012464,1.696e-05,0.0,0 STARLINK-3809,1 52851U 22062X   24141.87304160  .00001696  00000-0  12464-3 0  9996,2 52851  53.2161  97.1712 0001344  99.0976 261.0168 15.08832750107102,6917.903,95.438,540.697,538.838,0.0
